COMMENT,ORIGINATOR,NORAD_CAT_ID,OBJECT_NAME,OBJECT_TYPE,CLASSIFICATION_TYPE,INTLDES,EPOCH,EPOCH_MICROSECONDS,MEAN_MOTION,ECCENTRICITY,INCLINATION,RA_OF_ASC_NODE,ARG_OF_PERICENTER,MEAN_ANOMALY,EPHEMERIS_TYPE,ELEMENT_SET_NO,REV_AT_EPOCH,BSTAR,MEAN_MOTION_DOT,MEAN_MOTION_DDOT,FILE,TLE_LINE0,TLE_LINE1,TLE_LINE2,OBJECT_ID,OBJECT_NUMBER,SEMIMAJOR_AXIS,PERIOD,APOGEE,PERIGEE,DECAYED
"GENERATED VIA SPACETRACK.ORG API","18 SPCS","48895","SPACEBEE-108","PAYLOAD","U","21059S","2021-11-06 02:06:45","618336","15.12634717","0.0010451","97.5327","76.9898","149.0345","211.1504","0","999","2014","0.00031391","0.00005427","0","3204537","0 SPACEBEE-108","1 48895U 21059S   21310.08802799  .00005427  00000-0  31391-3 0  9999","2 48895  97.5327  76.9898 0010451 149.0345 211.1504 15.12634717 20141","2021-059S","48895","6906.306","95.198","535.388","520.953","0"
"GENERATED VIA SPACETRACK.ORG API","18 SPCS","48895","SPACEBEE-108","PAYLOAD","U","21059S","2021-11-06 06:52:32","109600","15.12637074","0.0010474","97.5327","77.1857","148.3164","211.8699","0","999","2017","0.00029544","0.00005104","0","3205696","0 SPACEBEE-108","1 48895U 21059S   21310.28648275  .00005104  00000-0  29544-3 0  9997","2 48895  97.5327  77.1857 0010474 148.3164 211.8699 15.12637074 20179","2021-059S","48895","6906.299","95.198","535.397","520.930","0"
"GENERATED VIA SPACETRACK.ORG API","18 SPCS","48895","SPACEBEE-108","PAYLOAD","U","21059S","2021-11-06 08:27:47","596608","15.12637927","0.0010474","97.5327","77.251","148.1226","212.0641","0","999","2018","0.0002905","0.00005018","0","3206165","0 SPACEBEE-108","1 48895U 21059S   21310.35263422  .00005018  00000-0  29050-3 0  9998","2 48895  97.5327  77.2510 0010474 148.1226 212.0641 15.12637927 20181","2021-059S","48895","6906.296","95.198","535.395","520.927","0"
"GENERATED VIA SPACETRACK.ORG API","18 SPCS","48895","SPACEBEE-108","PAYLOAD","U","21059S","2021-11-07 08:16:39","815328","15.12645305","0.0010542","97.5329","78.2307","144.9475","215.2452","0","999","2033","0.00019844","0.00003407","0","3206746","0 SPACEBEE-108","1 48895U 21059S   21311.34490527  .00003407  00000-0  19844-3 0  9996","2 48895  97.5329  78.2307 0010542 144.9475 215.2452 15.12645305 20335","2021-059S","48895","6906.273","95.197","535.419","520.858","0"
"GENERATED VIA SPACETRACK.ORG API","18 SPCS","48895","SPACEBEE-108","PAYLOAD","U","21059S","2021-11-07 08:16:39","815328","15.12645305","0.0010542","97.5329","78.2307","144.9475","215.2452","0","999","2033","0.00019844","0.00003407","0","3207387","0 SPACEBEE-108","1 48895U 21059S   21311.34490527  .00003407  00000-0  19844-3 0  9996","2 48895  97.5329  78.2307 0010542 144.9475 215.2452 15.12645305 20335","2021-059S","48895","6906.273","95.197","535.419","520.858","0"
"GENERATED VIA SPACETRACK.ORG API","18 SPCS","48895","SPACEBEE-108","PAYLOAD","U","21059S","2021-11-07 14:37:41","665728","15.12646887","0.0010559","97.5328","78.4919","144.1534","216.0407","0","999","2037","0.00018555","0.00003182","0","3207836","0 SPACEBEE-108","1 48895U 21059S   21311.60951002  .00003182  00000-0  18555-3 0  9993","2 48895  97.5328  78.4919 0010559 144.1534 216.0407 15.12646887 20370","2021-059S","48895","6906.269","95.197","535.426","520.841","0"
"GENERATED VIA SPACETRACK.ORG API","18 SPCS","48895","SPACEBEE-108","PAYLOAD","U","21059S","2021-11-08 08:05:31","621056","15.12651524","0.0010594","97.5327","79.2102","141.9579","218.2402","0","999","2048","0.00015144","0.00002585","0","3209620","0 SPACEBEE-108","1 48895U 21059S   21312.33717154  .00002585  00000-0  15144-3 0  9999","2 48895  97.5327  79.2102 0010594 141.9579 218.2402 15.12651524 20480","2021-059S","48895","6906.255","95.197","535.436","520.803","0"
"GENERATED VIA SPACETRACK.ORG API","18 SPCS","48895","SPACEBEE-108","PAYLOAD","U","21059S","2021-11-09 01:33:21","425184","15.12655937","0.0010604","97.5325","79.9285","139.8373","220.3643","0","999","2059","0.0001599","0.00002734","0","3209668","0 SPACEBEE-108","1 48895U 21059S   21313.06483131  .00002734  00000-0  15990-3 0  9990","2 48895  97.5325  79.9285 0010604 139.8373 220.3643 15.12655937 20592","2021-059S","48895","6906.241","95.197","535.430","520.783","0"
"GENERATED VIA SPACETRACK.ORG API","18 SPCS","48895","SPACEBEE-108","PAYLOAD","U","21059S","2021-11-09 14:15:24","836544","15.12658653","0.0010637","97.5324","80.4508","138.2266","221.9779","0","999","2067","0.00015445","0.00002638","0","3210161","0 SPACEBEE-108","1 48895U 21059S   21313.59403746  .00002638  00000-0  15445-3 0  9990","2 48895  97.5324  80.4508 0010637 138.2266 221.9779 15.12658653 20670","2021-059S","48895","6906.233","95.197","535.444","520.752","0"
"GENERATED VIA SPACETRACK.ORG API","18 SPCS","48895","SPACEBEE-108","PAYLOAD","U","21059S","2021-11-09 23:46:57","340416","15.12660782","0.0010641","97.5323","80.8426","137.087","223.1193","0","999","2073","0.00015725","0.00002688","0","3210816","0 SPACEBEE-108","1 48895U 21059S   21313.99094144  .00002688  00000-0  15725-3 0  9998","2 48895  97.5323  80.8426 0010641 137.0870 223.1193 15.12660782 20732","2021-059S","48895","6906.226","95.196","535.440","520.742","0"
"GENERATED VIA SPACETRACK.ORG API","18 SPCS","48895","SPACEBEE-108","PAYLOAD","U","21059S","2021-11-10 09:18:29","776032","15.12664169","0.0010645","97.5322","81.2344","135.9077","224.3005","0","999","2079","0.00018758","0.00003219","0","3210775","0 SPACEBEE-108","1 48895U 21059S   21314.38784463  .00003219  00000-0  18758-3 0  9992","2 48895  97.5322  81.2344 0010645 135.9077 224.3005 15.12664169 20799","2021-059S","48895","6906.216","95.196","535.433","520.729","0"
"GENERATED VIA SPACETRACK.ORG API","18 SPCS","48895","SPACEBEE-108","PAYLOAD","U","21059S","2021-11-10 14:04:15","989952","15.1266479","0.0010656","97.5322","81.4303","135.3163","224.8928","0","999","2082","0.00018065","0.00003098","0","3211038","0 SPACEBEE-108","1 48895U 21059S   21314.58629618  .00003098  00000-0  18065-3 0  9990","2 48895  97.5322  81.4303 0010656 135.3163 224.8928 15.12664790 20821","2021-059S","48895","6906.214","95.196","535.438","520.720","0"
"GENERATED VIA SPACETRACK.ORG API","18 SPCS","48895","SPACEBEE-108","PAYLOAD","U","21059S","2021-11-11 10:42:36","45792","15.12670093","0.0010718","97.5323","82.2791","132.5356","227.6782","0","999","2095","0.00018047","0.00003095","0","3211582","0 SPACEBEE-108","1 48895U 21059S   21315.44625053  .00003095  00000-0  18047-3 0  9992","2 48895  97.5323  82.2791 0010718 132.5356 227.6782 15.12670093 20950","2021-059S","48895","6906.198","95.196","535.465","520.661","0"
"GENERATED VIA SPACETRACK.ORG API","18 SPCS","48895","SPACEBEE-108","PAYLOAD","U","21059S","2021-11-11 13:53:06","800352","15.12670779","0.0010728","97.5323","82.4097","132.1322","228.0822","0","999","2097","0.00017957","0.00003079","0","3212088","0 SPACEBEE-108","1 48895U 21059S   21315.57855093  .00003079  00000-0  17957-3 0  9996","2 48895  97.5323  82.4097 0010728 132.1322 228.0822 15.12670779 20974","2021-059S","48895","6906.196","95.196","535.470","520.652","0"
"GENERATED VIA SPACETRACK.ORG API","18 SPCS","48895","SPACEBEE-108","PAYLOAD","U","21059S","2021-11-11 21:49:23","652192","15.12672589","0.0010761","97.5323","82.7361","131.1619","229.0542","0","999","2102","0.00017619","0.0000302","0","3212485","0 SPACEBEE-108","1 48895U 21059S   21315.90930153  .00003020  00000-0  17619-3 0  9995","2 48895  97.5323  82.7361 0010761 131.1619 229.0542 15.12672589 21024","2021-059S","48895","6906.190","95.196","535.487","520.624","0"
"GENERATED VIA SPACETRACK.ORG API","18 SPCS","48895","SPACEBEE-108","PAYLOAD","U","21059S","2021-11-12 08:56:11","193792","15.12675168","0.0010787","97.5323","83.1932","129.7753","230.4429","0","999","2109","0.00017391","0.00002981","0","3213417","0 SPACEBEE-108","1 48895U 21059S   21316.37235178  .00002981  00000-0  17391-3 0  9994","2 48895  97.5323  83.1932 0010787 129.7753 230.4429 15.12675168 21096","2021-059S","48895","6906.183","95.196","535.497","520.598","0"
"GENERATED VIA SPACETRACK.ORG API","18 SPCS","48895","SPACEBEE-108","PAYLOAD","U","21059S","2021-11-12 15:17:12","611328","15.12676613","0.0010804","97.5323","83.4544","128.9554","231.2642","0","999","2113","0.0001718","0.00002944","0","3213474","0 SPACEBEE-108","1 48895U 21059S   21316.63695152  .00002944  00000-0  17180-3 0  9990","2 48895  97.5323  83.4544 0010804 128.9554 231.2642 15.12676613 21135","2021-059S","48895","6906.178","95.195","535.505","520.582","0"
"GENERATED VIA SPACETRACK.ORG API","18 SPCS","48895","SPACEBEE-108","PAYLOAD","U","21059S","2021-11-12 21:38:13","990848","15.12677609","0.0010825","97.5323","83.7156","128.1536","232.0672","0","999","2117","0.00015752","0.00002694","0","3213639","0 SPACEBEE-108","1 48895U 21059S   21316.90155082  .00002694  00000-0  15752-3 0  9998","2 48895  97.5323  83.7156 0010825 128.1536 232.0672 15.12677609 21174","2021-059S","48895","6906.175","95.195","535.516","520.564","0"
"GENERATED VIA SPACETRACK.ORG API","18 SPCS","48895","SPACEBEE-108","PAYLOAD","U","21059S","2021-11-13 08:45:01","381248","15.12680427","0.0010851","97.5323","84.1727","126.7539","233.469","0","999","2124","0.00015885","0.00002717","0","3214083","0 SPACEBEE-108","1 48895U 21059S   21317.36459932  .00002717  00000-0  15885-3 0  9993","2 48895  97.5323  84.1727 0010851 126.7539 233.4690 15.12680427 21244","2021-059S","48895","6906.167","95.195","535.525","520.538","0"
"GENERATED VIA SPACETRACK.ORG API","18 SPCS","48895","SPACEBEE-108","PAYLOAD","U","21059S","2021-11-13 19:51:48","677472","15.12683069","0.0010882","97.5324","84.6299","125.3118","234.9132","0","999","2131","0.00015348","0.00002623","0","3214141","0 SPACEBEE-108","1 48895U 21059S   21317.82764673  .00002623  00000-0  15348-3 0  9995","2 48895  97.5324  84.6299 0010882 125.3118 234.9132 15.12683069 21316","2021-059S","48895","6906.159","95.195","535.539","520.508","0"
